#aV2021  6 18  0  0  0.00000000     288 DD+AD WGS84 FIT  NGA
## 2162 432000.00000000   300.00000000 59383 0.0000000000000
+   31     1  2  3  4  5  6  7  8  9 10 12 13 14 15 16 17 18
+         19 20 21 22 23 24 25 26 27 28 29 30 31 32  0  0  0
+          0  0  0  0  0  0  0  0  0  0  0  0  0  0  0  0  0
+          0  0  0  0  0  0  0  0  0  0  0  0  0  0  0  0  0
+          0  0  0  0  0  0  0  0  0  0  0  0  0  0  0  0  0
++         2  2  2  2  2  2  2  2  2  2  2  2  2  2  2  2  2
++         2  2  2  2  2  2  2  2  2  2  2  2  2  2  0  0  0
++         0  0  0  0  0  0  0  0  0  0  0  0  0  0  0  0  0
++         0  0  0  0  0  0  0  0  0  0  0  0  0  0  0  0  0
++         0  0  0  0  0  0  0  0  0  0  0  0  0  0  0  0  0
%c cc cc ccc ccc cccc cccc cccc cccc ccccc ccccc ccccc ccccc
%c cc cc ccc ccc cccc cccc cccc cccc ccccc ccccc ccccc ccccc
%f  0.0000000  0.000000000  0.00000000000  0.000000000000000
%f  0.0000000  0.000000000  0.00000000000  0.000000000000000
%i    0    0    0    0      0      0      0      0         0
%i    0    0    0    0      0      0      0      0         0
/*      NGA, ST. LOUIS,MO.                                  
/*   EPHEMERIS COMPUTED FROM 2 DAYS OF DATA                 
/*   EPOCHA v6 SMOOTHER                                     
/*   G2139 IERS2010 SATIGS SATAPC                           
*  2021  6 18 23 15  0.00000000
P  1  -8137.618956  18792.665084 -16982.360579    654.264686                    
V  1 -18489.429335  10351.395524  20972.518709     -0.116934                    
P  2  22105.404887 -14176.875753  -3513.842270   -613.393365                    
V  2  -2460.229173   5391.249594 -31360.610281     -0.028842                    
P  3   1245.845756  16548.520810 -20849.670817   -195.844422                    
V  3 -23841.881384 -10935.610864 -10035.824232     -0.107403                    
P  4  -1184.307448  26341.434251  -2907.223805   -200.255310                    
V  4  -2987.273777  -3614.602305 -31493.528597     -0.010942                    
P  5  13340.091666  -9932.233292  20592.211752    -45.353484                    
V  5  23822.004330  11579.856783  -9593.497706     -0.011310                    
P  6  22366.198459  -3885.015713 -13782.560409     28.658291                    
V  6 -13704.979164  11044.352981 -25193.216441      0.047675                    
P  7   7076.470820  13944.649198  21803.081958    181.675837                    
V  7 -22713.704660  14423.062473  -2377.637425      0.096160                    
P  8  -6874.563047  22162.966077  12624.298038    -25.608309                    
V  8  -3708.357496 -15901.976263  26169.280635     -0.015144                    
P  9   7536.871903  24236.494255   7730.926287   -351.762520                    
V  9  -2060.063744  10118.035785 -29509.109742     -0.018433                    
P 10 -23971.136201 -11779.791877     68.330348   -145.066537                    
V 10    965.754504  -2097.474643  31772.737058     -0.075997                    
P 12   1222.988999 -16109.611537 -21360.009892    -56.868018                    
V 12  23119.870179  12895.700304  -8369.028762     -0.052317                    
P 13  12889.950701 -15358.872370  17214.580280    146.643973                    
V 13    256.296397  22219.516905  19617.686665      0.048918                    
P 14  23384.033701  12638.721574   -223.874628     66.358301                    
V 14  -1156.531647   2681.980780  31645.061417     -0.076716                    
P 15   4616.329037 -23035.025407  11678.296168   -141.441772                    
V 15   6329.451787  14688.805662  26020.735692      0.026283                    
P 16 -18370.838950   3728.905221  18749.993734   -343.462148                    
V 16 -20049.044687 -13471.649167 -16302.232212     -0.060647                    
P 17  12575.339421  13455.460913 -18710.385659    460.612049                    
V 17  -1089.052482  24613.883986  16597.904374      0.060199                    
P 18  -9500.707162 -11747.966844  21834.643761    346.056023                    
V 18  23305.541226 -15020.229552   1987.949117     -0.019114                    
P 19  14672.224761   3835.088892 -22101.214212     15.172693                    
V 19  -1268.169725  27277.875450   3816.795666      0.049853                    
P 20  15048.130629 -10016.551674  19317.108117    521.034427                    
V 20  23078.876274   9180.352731 -13493.583279     -0.003884                    
P 21 -14611.518330  19560.466194  -9109.364224    125.914551                    
V 21 -12009.430658   5306.994253  28976.393525      0.024617                    
P 22  -8307.229579  13507.923148 -21105.817884   -585.023404                    
V 22 -25434.885785 -10068.066834   3735.339344      0.096265                    
P 23 -18017.764251 -16398.247627  10621.364926     95.267962                    
V 23  13229.960406   3533.401019  27787.939259     -0.043442                    
P 24  11363.225972 -20448.167867 -12443.515305    138.550985                    
V 24  14292.899087  -7067.851433  25566.115074      0.175494                    
P 25 -11657.594131 -18123.480781 -15963.909588    158.347345                    
V 25  18421.249596   7140.499211 -21658.518311      0.068559                    
P 26 -24243.558270  -1935.799000  10929.971534    100.104949                    
V 26 -11636.600144  -8102.391009 -26830.196888      0.047775                    
P 27 -12371.048380  12699.387373  19474.799814   -149.364411                    
V 27  -2966.782161 -25056.558555  14678.220144     -0.061811                    
P 28  23689.751652   9963.187850  -5752.828216    552.347090                    
V 28   5490.828944   6428.717000  31007.329269     -0.064279                    
P 29  -4618.200437 -25099.924718   7203.266195   -366.371032                    
V 29   2093.878454  -9192.428458 -30524.401128     -0.062731                    
P 30  18376.866142   4681.198779  18752.302618   -440.641969                    
V 30 -19150.073927  14017.532631  15083.587758     -0.046332                    
P 31 -23663.165846   5482.720129 -11359.939956   -123.839299                    
V 31  10787.313874  -9398.973636 -26751.263944     -0.021444                    
P 32 -14627.631191 -10140.505063 -19652.334580     17.964037                    
V 32   -667.974300 -25183.260272  13244.486600     -0.014638                    
EOF
